start=new Date('2022-05-30T00:00:00.000Z').valueOf();
sats=[{"BSTAR":"0.00055025000000","EPOCH":"2022-05-29T16:10:48.821952","TLE_LINE2":"2 45533  53.0401 141.2257 0011115  39.0336 321.1474 15.53836128117665","FILE":"3471362","GP_ID":"204887520","SITE":"AFETR","NORAD_CAT_ID":"45533","REF_FRAME":"TEME","PERIOD":"92.674","COUNTRY_CODE":"US","OBJECT_TYPE":"PAYLOAD","MEAN_MOTION_DDOT":"0.0000000000000","ELEMENT_SET_NO":"999","APOAPSIS":"413.080","MEAN_ANOMALY":"321.1474","OBJECT_NAME":"STARLINK-1339","RA_OF_ASC_NODE":"141.2257","SEMIMAJOR_AXIS":"6783.675","CENTER_NAME":"EARTH","INCLINATION":"53.0401","MEAN_MOTION_DOT":"0.00035763","DECAY_DATE":null,"OBJECT_ID":"2020-025C","ECCENTRICITY":"0.00111150","RCS_SIZE":"LARGE","MEAN_ELEMENT_THEORY":"SGP4","PERIAPSIS":"398.000","TIME_SYSTEM":"UTC","LAUNCH_DATE":"2020-04-22","EPHEMERIS_TYPE":"0","ARG_OF_PERICENTER":"39.0336","TLE_LINE1":"1 45533U 20025C   22149.67417618  .00035763  00000-0  55025-3 0  9991","REV_AT_EPOCH":"11766","CLASSIFICATION_TYPE":"U","MEAN_MOTION":"15.53836128"},{"PERIAPSIS":"545.954","TIME_SYSTEM":"UTC","LAUNCH_DATE":"2020-04-22","DECAY_DATE":null,"MEAN_MOTION_DOT":"0.00003537","RCS_SIZE":"LARGE","ECCENTRICITY":"0.00017800","MEAN_ELEMENT_THEORY":"SGP4","OBJECT_ID":"2020-025D","MEAN_MOTION":"15.06408800","CLASSIFICATION_TYPE":"U","EPHEMERIS_TYPE":"0","ARG_OF_PERICENTER":"48.0791","REV_AT_EPOCH":"11705","TLE_LINE1":"1 45534U 20025D   22149.43126103  .00003537  00000-0  25618-3 0  9991","REF_FRAME":"TEME","NORAD_CAT_ID":"45534","COUNTRY_CODE":"US","OBJECT_TYPE":"PAYLOAD","PERIOD":"95.592","MEAN_MOTION_DDOT":"0.0000000000000","ELEMENT_SET_NO":"999","TLE_LINE2":"2 45534  53.0528 182.8366 0001780  48.0791 312.0350 15.06408800117055","EPOCH":"2022-05-29T10:21:00.952992","BSTAR":"0.00025618000000","FILE":"3470904","GP_ID":"204852405","SITE":"AFETR","INCLINATION":"53.0528","SEMIMAJOR_AXIS":"6925.322","CENTER_NAME":"EARTH","RA_OF_ASC_NODE":"182.8366","APOAPSIS":"548.419","OBJECT_NAME":"STARLINK-1341","MEAN_ANOMALY":"312.0350"},{"TIME_SYSTEM":"UTC","PERIAPSIS":"545.981","LAUNCH_DATE":"2020-04-22","MEAN_MOTION_DOT":"-0.00000467","DECAY_DATE":null,"OBJECT_ID":"2020-025E","MEAN_ELEMENT_THEORY":"SGP4","ECCENTRICITY":"0.00017940","RCS_SIZE":"LARGE","CLASSIFICATION_TYPE":"U","MEAN_MOTION":"15.06396778","EPHEMERIS_TYPE":"0","ARG_OF_PERICENTER":"51.2211","REV_AT_EPOCH":"11711","TLE_LINE1":"1 45535U 20025E   22149.78142400 -.00000467  00000-0 -12466-4 0  9997","OBJECT_TYPE":"PAYLOAD","COUNTRY_CODE":"US","PERIOD":"95.592","MEAN_MOTION_DDOT":"0.0000000000000","NORAD_CAT_ID":"45535","REF_FRAME":"TEME","ELEMENT_SET_NO":"999","BSTAR":"-0.00001246600000","EPOCH":"2022-05-29T18:45:15.033600","TLE_LINE2":"2 45535  53.0526 181.2597 0001794  51.2211 308.8938 15.06396778117113","SITE":"AFETR","FILE":"3471362","GP_ID":"204888020","SEMIMAJOR_AXIS":"6925.358","CENTER_NAME":"EARTH","INCLINATION":"53.0526","MEAN_ANOMALY":"308.8938","OBJECT_NAME":"STARLINK-1350","APOAPSIS":"548.466","RA_OF_ASC_NODE":"181.2597"},{"EPHEMERIS_TYPE":"0","ARG_OF_PERICENTER":"55.1236","REV_AT_EPOCH":"11710","TLE_LINE1":"1 45536U 20025F   22149.78511442  .00000746  00000-0  68958-4 0  9999","MEAN_MOTION":"15.06393766","CLASSIFICATION_TYPE":"U","DECAY_DATE":null,"MEAN_MOTION_DOT":"0.00000746","MEAN_ELEMENT_THEORY":"SGP4","ECCENTRICITY":"0.00015840","RCS_SIZE":"LARGE","OBJECT_ID":"2020-025F","TIME_SYSTEM":"UTC","PERIAPSIS":"546.136","LAUNCH_DATE":"2020-04-22","RA_OF_ASC_NODE":"181.2480","MEAN_ANOMALY":"304.9901","OBJECT_NAME":"STARLINK-1352","APOAPSIS":"548.330","INCLINATION":"53.0533","CENTER_NAME":"EARTH","SEMIMAJOR_AXIS":"6925.368","TLE_LINE2":"2 45536  53.0533 181.2480 0001584  55.1236 304.9901 15.06393766117100","BSTAR":"0.00006895800000","EPOCH":"2022-05-29T18:50:33.885888","SITE":"AFETR","FILE":"3471362","GP_ID":"204888267","OBJECT_TYPE":"PAYLOAD","COUNTRY_CODE":"US","PERIOD":"95.593","MEAN_MOTION_DDOT":"0.0000000000000","NORAD_CAT_ID":"45536","REF_FRAME":"TEME","ELEMENT_SET_NO":"999"},{"NORAD_CAT_ID":"45537","REF_FRAME":"TEME","COUNTRY_CODE":"US","OBJECT_TYPE":"PAYLOAD","MEAN_MOTION_DDOT":"0.0000000000000","PERIOD":"94.508","ELEMENT_SET_NO":"999","EPOCH":"2022-05-29T16:14:42.668736","BSTAR":"0.00109930000000","TLE_LINE2":"2 45537  52.9787 138.2611 0004576  26.2776 333.8451 15.23685769117679","FILE":"3471362","GP_ID":"204887020","SITE":"AFETR","SEMIMAJOR_AXIS":"6872.872","CENTER_NAME":"EARTH","INCLINATION":"52.9787","APOAPSIS":"497.882","OBJECT_NAME":"STARLINK-1353","MEAN_ANOMALY":"333.8451","RA_OF_ASC_NODE":"138.2611","PERIAPSIS":"491.592","TIME_SYSTEM":"UTC","LAUNCH_DATE":"2020-04-22","MEAN_MOTION_DOT":"0.00026489","DECAY_DATE":null,"OBJECT_ID":"2020-025G","ECCENTRICITY":"0.00045760","RCS_SIZE":"LARGE","MEAN_ELEMENT_THEORY":"SGP4","CLASSIFICATION_TYPE":"U","MEAN_MOTION":"15.23685769","EPHEMERIS_TYPE":"0","ARG_OF_PERICENTER":"26.2776","TLE_LINE1":"1 45537U 20025G   22149.67688274  .00026489  00000-0  10993-2 0  9992","REV_AT_EPOCH":"11767"},{"OBJECT_ID":"2020-025H","ECCENTRICITY":"0.00013930","RCS_SIZE":"LARGE","MEAN_ELEMENT_THEORY":"SGP4","MEAN_MOTION_DOT":"-0.00008417","DECAY_DATE":null,"LAUNCH_DATE":"2020-04-22","PERIAPSIS":"546.163","TIME_SYSTEM":"UTC","REV_AT_EPOCH":"11711","TLE_LINE1":"1 45538U 20025H   22149.81090028 -.00008417  00000-0 -54644-3 0  9998","ARG_OF_PERICENTER":"64.8769","EPHEMERIS_TYPE":"0","CLASSIFICATION_TYPE":"U","MEAN_MOTION":"15.06428099","GP_ID":"204887270","FILE":"3471362","SITE":"AFETR","EPOCH":"2022-05-29T19:27:41.784192","BSTAR":"-0.00054644000000","TLE_LINE2":"2 45538  53.0544 181.1391 0001393  64.8769 295.2364 15.06428099117114","ELEMENT_SET_NO":"999","NORAD_CAT_ID":"45538","REF_FRAME":"TEME","OBJECT_TYPE":"PAYLOAD","COUNTRY_CODE":"US","PERIOD":"95.590","MEAN_MOTION_DDOT":"0.0000000000000","APOAPSIS":"548.092","OBJECT_NAME":"STARLINK-1362","MEAN_ANOMALY":"295.2364","RA_OF_ASC_NODE":"181.1391","SEMIMAJOR_AXIS":"6925.262","CENTER_NAME":"EARTH","INCLINATION":"53.0544"},{"TLE_LINE1":"1 45539U 20025J   22149.84930448  .00078026  00000-0  44421-3 0  9994","REV_AT_EPOCH":"11979","ARG_OF_PERICENTER":"304.3025","EPHEMERIS_TYPE":"0","CLASSIFICATION_TYPE":"U","MEAN_MOTION":"15.78237434","OBJECT_ID":"2020-025J","MEAN_ELEMENT_THEORY":"SGP4","RCS_SIZE":"LARGE","ECCENTRICITY":"0.00095720","MEAN_MOTION_DOT":"0.00078026","DECAY_DATE":null,"LAUNCH_DATE":"2020-04-22","TIME_SYSTEM":"UTC","PERIAPSIS":"329.010","MEAN_ANOMALY":"55.7089","OBJECT_NAME":"STARLINK-1367","APOAPSIS":"341.863","RA_OF_ASC_NODE":"348.1954","SEMIMAJOR_AXIS":"6713.571","CENTER_NAME":"EARTH","INCLINATION":"53.0426","SITE":"AFETR","GP_ID":"204888521","FILE":"3471362","BSTAR":"0.00044421000000","EPOCH":"2022-05-29T20:22:59.907072","TLE_LINE2":"2 45539  53.0426 348.1954 0009572 304.3025  55.7089 15.78237434119797","ELEMENT_SET_NO":"999","COUNTRY_CODE":"US","OBJECT_TYPE":"PAYLOAD","PERIOD":"91.241","MEAN_MOTION_DDOT":"0.0000000000000","NORAD_CAT_ID":"45539","REF_FRAME":"TEME"},{"CENTER_NAME":"EARTH","SEMIMAJOR_AXIS":"6925.351","INCLINATION":"53.0551","MEAN_ANOMALY":"308.5388","OBJECT_NAME":"STARLINK-1368","APOAPSIS":"548.390","RA_OF_ASC_NODE":"181.2348","ELEMENT_SET_NO":"999","COUNTRY_CODE":"US","OBJECT_TYPE":"PAYLOAD","MEAN_MOTION_DDOT":"0.0000000000000","PERIOD":"95.592","NORAD_CAT_ID":"45540","REF_FRAME":"TEME","SITE":"AFETR","FILE":"3471362","GP_ID":"204888768","BSTAR":"0.00015037000000","EPOCH":"2022-05-29T18:55:52.318272","TLE_LINE2":"2 45540  53.0551 181.2348 0001696  51.5753 308.5388 15.06399316117102","CLASSIFICATION_TYPE":"U","MEAN_MOTION":"15.06399316","TLE_LINE1":"1 45540U 20025K   22149.78879998  .00001959  00000-0  15037-3 0  9993","REV_AT_EPOCH":"11710","ARG_OF_PERICENTER":"51.5753","EPHEMERIS_TYPE":"0","LAUNCH_DATE":"2020-04-22","TIME_SYSTEM":"UTC","PERIAPSIS":"546.041","OBJECT_ID":"2020-025K","MEAN_ELEMENT_THEORY":"SGP4","RCS_SIZE":"LARGE","ECCENTRICITY":"0.00016960","MEAN_MOTION_DOT":"0.00001959","DECAY_DATE":null},{"MEAN_MOTION":"15.06403674","CLASSIFICATION_TYPE":"U","EPHEMERIS_TYPE":"0","ARG_OF_PERICENTER":"42.9450","TLE_LINE1":"1 45541U 20025L   22149.79248446  .00000403  00000-0  45963-4 0  9998","REV_AT_EPOCH":"11710","PERIAPSIS":"545.769","TIME_SYSTEM":"UTC","LAUNCH_DATE":"2020-04-22","DECAY_DATE":null,"MEAN_MOTION_DOT":"0.00000403","RCS_SIZE":"LARGE","ECCENTRICITY":"0.00020700","MEAN_ELEMENT_THEORY":"SGP4","OBJECT_ID":"2020-025L","INCLINATION":"53.0542","SEMIMAJOR_AXIS":"6925.337","CENTER_NAME":"EARTH","RA_OF_ASC_NODE":"181.2046","APOAPSIS":"548.636","OBJECT_NAME":"STARLINK-1369","MEAN_ANOMALY":"317.1700","NORAD_CAT_ID":"45541","REF_FRAME":"TEME","COUNTRY_CODE":"US","OBJECT_TYPE":"PAYLOAD","MEAN_MOTION_DDOT":"0.0000000000000","PERIOD":"95.592","ELEMENT_SET_NO":"999","TLE_LINE2":"2 45541  53.0542 181.2046 0002070  42.9450 317.1700 15.06403674117100","EPOCH":"2022-05-29T19:01:10.657344","BSTAR":"0.00004596300000","FILE":"3471362","GP_ID":"204887521","SITE":"AFETR"},{"EPHEMERIS_TYPE":"0","ARG_OF_PERICENTER":"62.4161","TLE_LINE1":"1 45542U 20025M   22149.82565816  .00002676  00000-0  19845-3 0  9999","REV_AT_EPOCH":"11711","CLASSIFICATION_TYPE":"U","MEAN_MOTION":"15.06401141","MEAN_MOTION_DOT":"0.00002676","DECAY_DATE":null,"OBJECT_ID":"2020-025M","MEAN_ELEMENT_THEORY":"SGP4","RCS_SIZE":"LARGE","ECCENTRICITY":"0.00016800","TIME_SYSTEM":"UTC","PERIAPSIS":"546.047","LAUNCH_DATE":"2020-04-22","MEAN_ANOMALY":"297.6999","OBJECT_NAME":"STARLINK-1371","APOAPSIS":"548.374","RA_OF_ASC_NODE":"181.0768","CENTER_NAME":"EARTH","SEMIMAJOR_AXIS":"6925.345","INCLINATION":"53.0529","BSTAR":"0.00019845000000","EPOCH":"2022-05-29T19:48:56.865024","TLE_LINE2":"2 45542  53.0529 181.0768 0001680  62.4161 297.6999 15.06401141117117","SITE":"AFETR","GP_ID":"204887771","FILE":"3471362","OBJECT_TYPE":"PAYLOAD","COUNTRY_CODE":"US","PERIOD":"95.592","MEAN_MOTION_DDOT":"0.0000000000000","REF_FRAME":"TEME","NORAD_CAT_ID":"45542","ELEMENT_SET_NO":"999"}];
